,BIN,HouseNumber,StreetName,Borough,CBNo,WorkPermitNumber,AHV Permit Number,AHVPermitStatus,VarianceType,reasonforvariance,Variance Start Date-Time,Variance End Date-Time,Is_a_residence_within_200feet_of_the_site,Is_all_the_work_within_an_enclosed_building,Does_work_involve_full_or_partial_demolition,Does_any_of_the_work_involve_crane_use,Latitude,Longitude,Community Board,Council District,Census Tract,BBL,NTA
67185,1036465,375,PARK AVENUE,MANHATTAN,105,M00526077-I1-GC,M5250184,AHV Permit Issued,Initial,Construction activities with minimal noise impact,12/17/2021 06:00:00 PM,12/18/2021 06:00:00 AM,true,true,true,false,40.758786,-73.972801,5,4,100,1013070001,Turtle Bay-East Midtown
14354,3332219,604,CLINTON STREET,BROOKLYN,306,B00064359-I1-FN,B7590935,AHV Permit Issued,Renewal,Emergency Work,11/10/2018 08:00:00 AM,11/10/2018 04:30:00 PM,true,false,false,false,40.675027,-74.00173,6,38,85,3005380001,Carroll Gardens-Columbia Street-Red Hook
31208,1036152,122,EAST 42 STREET,MANHATTAN,105,M00384872-I1-SH,M4935205,AHV Permit Issued,Initial,Construction activities with minimal noise impact,06/11/2021 12:00:00 AM,06/11/2021 07:00:00 AM,false,false,false,false,40.751601,-73.97645,5,4,80,1012960014,Murray Hill-Kips Bay
43491,1015500,160,5 AVENUE,MANHATTAN,105,M00464646-I1-GC,M2787492,AHV Permit Issued,Renewal,Public Safety,08/18/2021 06:00:00 PM,08/19/2021 12:00:00 AM,true,true,false,false,40.740177,-73.990589,5,3,54,1008227507,Hudson Yards-Chelsea-Flatiron-Union Square
65224,4050410,95-25,QUEENS BOULEVARD,QUEENS,406,Q00576163-I1-GC,Q5760157,AHV Permit Issued,Renewal,Construction activities with minimal noise impact,11/24/2021 06:00:00 PM,11/25/2021 02:00:00 AM,false,true,false,false,40.730605,-73.863635,6,29,71701,4020790001,Rego Park
35776,1023449,881,7 AVENUE,MANHATTAN,105,M00572082-I1-SH,M3835340,AHV Permit Issued,Initial,Public Safety,08/26/2021 08:00:00 PM,08/27/2021 06:00:00 AM,true,false,false,false,40.764941,-73.980445,5,4,137,1010090001,Midtown-Midtown South
20676,2009540,459,EAST 176 STREET,BRONX,206,X00304817-I1-SH,X7525131,AHV Permit Issued,Renewal,Public Safety,03/12/2021 06:00:00 PM,03/12/2021 11:59:00 PM,true,false,false,false,40.846162,-73.899264,6,15,395,2029090032,Claremont-Bathgate
19319,1035053,730,FIFTH AVENUE,MANHATTAN,105,"M00448251-I1-GC, M00437232-I1-MS, M00446566-I1-ST",M9482968,AHV Permit Issued,Initial,Public Safety,04/05/2021 06:00:00 PM,04/06/2021 02:00:00 AM,true,true,false,false,40.762635,-73.974222,5,4,11201,1012727503,Midtown-Midtown South
31261,3335796,292,KENT AVENUE,BROOKLYN,301,B00252953-I1-ST,B1635294,AHV Permit Issued,Initial,Construction activities with minimal noise impact,06/09/2021 06:00:00 AM,06/09/2021 07:00:00 AM,true,false,false,true,40.714616,-73.966839,1,33,551,3024140025,North Side-South Side
61855,1000005,1,NEW YORK PLAZA,MANHATTAN,101,"M00510672-I1-GC, M00510704-I1-MS",M5980175,AHV Permit Issued,Renewal,Public Safety,12/10/2021 06:00:00 PM,12/11/2021 02:00:00 AM,true,true,false,false,40.70254,-74.012562,1,1,9,1000047501,Battery Park City-Lower Manhattan
50513,3343595,1255,PENNSYLVANIA AVENUE,BROOKLYN,305,B00494921-I1-GC,B2800356,AHV Permit Issued,Initial,Construction activities with minimal noise impact,10/16/2021 09:00:00 AM,10/17/2021 05:00:00 AM,true,false,false,false,40.650014,-73.88415,5,42,105801,3044520085,Starrett City
21147,1026318,10,COLUMBUS CIRCLE,MANHATTAN,104,"140899838-01-EW-OT, M00345877-I1-MS, 140899847-01-EW-OT, M00345927-I1-MS",M7155931,AHV Permit Issued,Initial,Construction activities with minimal noise impact,04/03/2021 08:00:00 AM,04/03/2021 05:00:00 PM,true,true,false,false,40.768244,-73.982339,4,3,145,1010497501,Lincoln Square
35275,1085735,200,PARK AVENUE,MANHATTAN,105,M00448583-I1-GC,M4216497,AHV Permit Issued,Initial,Public Safety,07/02/2021 06:00:00 PM,07/03/2021 02:00:00 AM,true,true,true,false,40.754162,-73.976557,5,4,92,1012809010,Turtle Bay-East Midtown
11481,1087119,1095,6 AVENUE,MANHATTAN,105,M00088091-I1-SH,M8502307,AHV Permit Issued,Initial,Public Safety,06/14/2019 06:00:00 PM,06/15/2019 06:00:00 AM,false,false,false,false,40.754688,-73.984241,5,4,113,1009947501,Midtown-Midtown South
3367,2128937,4215,PARK AVENUE,BRONX,206,"X00348080-I1-MS, 240273057-01-EW-OT",X2034737,AHV Permit Issued,Initial,Emergency Work,10/19/2020 12:00:00 AM,10/19/2020 06:59:00 AM,true,false,false,false,40.847864,-73.899225,6,15,379,2030277501,Mount Hope
31507,1035071,9,WEST   57 STREET,MANHATTAN,105,M00472005-I1-GC,M7639460,AHV Permit Issued,Initial,Public Safety,07/16/2021 06:00:00 PM,07/16/2021 07:59:00 PM,true,false,false,false,40.763255,-73.974633,5,4,11201,1012730022,Midtown-Midtown South
58057,1090216,412,WEST   15 STREET,MANHATTAN,104,"M00461882-I1-GC, M00461897-I1-MS",M5803510,AHV Permit Issued,Initial,Construction activities with minimal noise impact,11/27/2021 07:00:00 AM,11/27/2021 05:00:00 PM,true,true,false,false,40.74198,-74.005687,4,3,83,1007120042,Hudson Yards-Chelsea-Flatiron-Union Square
16693,1022709,1271,6 AVENUE,MANHATTAN,105,M00409045-I1-ST,M6407962,AHV Permit Issued,Initial,Public Safety,12/29/2020 06:00:00 PM,12/29/2020 11:59:00 PM,true,true,false,false,40.760289,-73.980157,5,4,131,1010030029,Midtown-Midtown South
55270,1030519,2099,BROADWAY,MANHATTAN,107,M00503609-I1-MS,M2882523,AHV Permit Issued,Initial,Construction activities with minimal noise impact,10/06/2021 06:00:00 PM,10/07/2021 02:00:00 AM,true,true,false,false,40.77947,-73.981888,7,6,159,1011640037,Lincoln Square
18993,1015500,160,5 AVENUE,MANHATTAN,105,M00464646-I1-GC,M5866162,AHV Permit Issued,Initial,Public Safety,05/11/2021 08:01:00 PM,05/12/2021 12:00:00 AM,true,true,false,false,40.740177,-73.990589,5,3,54,1008227507,Hudson Yards-Chelsea-Flatiron-Union Square
23711,3257043,31,FLEET WALK,BROOKLYN,302,"B00372756-I1-SH, B00372184-I1-FN, B00372762-I1-SF",B8626603,AHV Permit Issued,Renewal,Public Safety,05/02/2021 08:00:00 AM,05/02/2021 06:00:00 PM,true,false,false,false,40.695002,-73.981435,2,35,15,3020500001,DUMBO-Vinegar Hill-Downtown Brooklyn-Boerum Hill
4297,1090825,10,VANDERBILT AVENUE,MANHATTAN,105,"M00327506-I1-ST, 123777706-01-EW-OT, 123777706-02-EW-MH",M8466700,AHV Permit Issued,Renewal,Public Safety,12/06/2020 07:00:00 AM,12/06/2020 06:00:00 PM,true,true,false,false,40.752732,-73.978138,5,4,94,1012770027,Midtown-Midtown South
24296,1035727,520,MADISON AVENUE,MANHATTAN,105,M00496248-I1-GC,M3563865,AHV Permit Issued,Initial,Public Safety,04/29/2021 06:00:00 PM,04/30/2021 12:00:00 AM,false,true,true,false,40.760107,-73.974768,5,4,102,1012890014,Midtown-Midtown South
31242,1087143,149,EAST  125 STREET,MANHATTAN,111,M00544422-I1-GC,M2108549,AHV Permit Issued,Initial,Construction activities with minimal noise impact,07/06/2021 06:00:00 PM,07/06/2021 10:00:00 PM,true,true,false,false,40.804217,-73.937019,11,9,196,1017747501,East Harlem North
17078,1034484,580,FIFTH AVENUE,MANHATTAN,105,M00393863-I1-PL,M2819627,AHV Permit Issued,Initial,Emergency Work,01/09/2021 08:00:00 AM,01/09/2021 05:00:00 PM,true,true,false,false,40.756959,-73.979025,5,4,96,1012630034,Midtown-Midtown South
23536,1083869,55,EAST   52 STREET,MANHATTAN,105,M00448058-I1-GC,M9462771,Approved,Initial,Public Safety,05/19/2021 06:00:00 PM,05/20/2021 02:00:00 AM,false,true,false,false,40.758828,-73.973978,5,4,102,1012880027,Midtown-Midtown South
31687,4224410,204-11,HILLSIDE AVENUE,QUEENS,408,Q00469996-I1-GC,Q2588724,AHV Permit Issued,Initial,Emergency Work,07/08/2021 06:00:00 PM,07/08/2021 11:00:00 PM,false,true,false,false,40.720406,-73.760959,8,23,478,4105330001,Jamaica Estates-Holliswood
13446,1076195,1601,BROADWAY,MANHATTAN,105,M00211609-I1-MS,M1006336,AHV Permit Rejected,Initial,Public Safety,11/18/2019 06:00:00 PM,11/19/2019 07:00:00 AM,true,true,false,false,40.760375,-73.985189,5,3,125,1010200046,Midtown-Midtown South
5276,1035792,727,5 AVENUE,MANHATTAN,105,M00217047-I1-SH,M7225887,AHV Permit Issued,Initial,Public Safety,10/31/2019 09:00:00 PM,11/01/2019 06:00:00 AM,true,false,false,false,40.762569,-73.974247,5,4,11202,1012920069,Midtown-Midtown South
27135,1083860,45,ROCKEFELLER PLAZA,MANHATTAN,105,M00492878-I1-ST,M3482241,AHV Permit Rejected,Initial,Construction activities with minimal noise impact,06/19/2021 06:00:00 AM,06/19/2021 06:00:00 PM,false,false,false,true,40.759204,-73.978335,5,4,104,1012660001,Midtown-Midtown South
2283,1022709,1271,AVENUE OF THE AMERICAS,MANHATTAN,105,"M00344197-I1-ST, M00344310-I1-MS, M00344315-I1-MS",M7117054,AHV Permit Issued,Initial,Public Safety,10/22/2020 06:00:00 PM,10/23/2020 07:00:00 AM,true,true,false,false,40.760289,-73.980157,5,4,131,1010030029,Midtown-Midtown South
55589,1034485,590,FIFTH AVENUE,MANHATTAN,105,M00585807-I1-GC,M8915764,AHV Permit Issued,Initial,Public Safety,10/07/2021 06:00:00 PM,10/08/2021 02:00:00 AM,true,true,true,false,40.757066,-73.978285,5,4,96,1012630038,Midtown-Midtown South
58790,1007825,160,VARICK STREET,MANHATTAN,102,M00496016-I1-GC,M5592182,AHV Permit Issued,Initial,Public Safety,11/13/2021 09:00:00 AM,11/13/2021 05:00:00 PM,true,false,false,false,40.726615,-74.005617,2,3,37,1005067501,SoHo-TriBeCa-Civic Center-Little Italy
34115,1035788,32,EAST   57 STREET,MANHATTAN,105,M00530681-I1-SH,M1028947,AHV Permit Issued,Initial,Public Safety,06/23/2021 06:00:00 PM,06/24/2021 06:00:00 AM,true,false,false,false,40.762162,-73.972082,5,4,11202,1012920048,Midtown-Midtown South
13379,1080922,460,WEST 41 STREET,MANHATTAN,104,M00078513-I1-SH,M9676886,AHV Permit Issued,Initial,Public Safety,03/16/2019 07:00:00 AM,03/16/2019 05:00:00 PM,true,false,false,false,40.758655,-73.995116,4,3,115,1010500001,Clinton
62272,1046429,15,EAST   79 STREET,MANHATTAN,108,M00495870-I1-GC,M5737327,AHV Permit Issued,Renewal,Public Safety,11/18/2021 06:00:00 PM,11/18/2021 09:00:00 PM,true,true,false,false,40.776701,-73.962991,8,4,142,1014910008,Upper East Side-Carnegie Hill
48427,1000005,1,NEW YORK PLAZA,MANHATTAN,101,"M00503824-I1-GC, M00504195-I1-MS",M1716540,AHV Permit Issued,Renewal,Public Safety,09/29/2021 06:00:00 PM,09/30/2021 02:00:00 AM,true,true,false,false,40.70254,-74.012562,1,1,9,1000047501,Battery Park City-Lower Manhattan
66241,3201629,3117,AVENUE W,BROOKLYN,315,"B00590533-I1-SF, B00590529-I1-FN, B00590530-I1-SH",B4844128,AHV Permit Issued,Renewal,Construction activities with minimal noise impact,12/17/2021 06:00:00 PM,12/17/2021 11:59:00 PM,true,false,false,false,40.596757,-73.933499,15,46,570,3073930001,Sheepshead Bay-Gerritsen Beach-Manhattan Beach
40990,4059955,59-57,56 AVENUE,QUEENS,405,Q00485467-I1-GC-CX,Q7797078,AHV Permit Issued,Initial,Public Safety,09/18/2021 08:00:00 AM,09/18/2021 05:00:00 PM,true,false,false,false,40.725282,-73.907196,5,30,531,4026880055,Maspeth
6314,3127746,275,WEBSTER AVENUE,BROOKLYN,314,B00034358-I1-SH,B1744091,AHV Permit Issued,Initial,Public Safety,04/21/2018 06:00:00 AM,04/21/2018 06:00:00 PM,true,false,false,false,40.632894,-73.970716,14,40,482,3054170058,Flatbush
40620,1016951,295,5 AVENUE,MANHATTAN,105,"M00318610-I1-MS, M00348205-I1-ST, 123842538-01-AL",M6804259,AHV Permit Issued,Renewal,Public Safety,09/13/2021 06:00:00 PM,09/13/2021 11:00:00 PM,true,true,true,false,40.746333,-73.986084,5,4,74,1008600001,Midtown-Midtown South
61483,3401193,247,WILLIAMS AVENUE,BROOKLYN,305,B00528984-I1-ST,B5152437,AHV Permit Issued,Initial,Public Safety,11/06/2021 07:00:00 AM,11/06/2021 06:00:00 PM,true,true,false,false,40.669886,-73.899206,5,42,1134,3037510005,East New York (Pennsylvania Ave)
28505,1090825,10,VANDERBILT AVENUE,MANHATTAN,105,M00446480-I1-GC,M7228946,AHV Permit Issued,Initial,Public Safety,05/28/2021 06:00:00 PM,05/29/2021 02:00:00 AM,false,true,false,false,40.752732,-73.978138,5,4,94,1012770027,Midtown-Midtown South
18544,1035328,475,5 AVENUE,MANHATTAN,105,M00452843-I1-GC,M5078354,AHV Permit Issued,Initial,Public Safety,02/09/2021 06:00:00 PM,02/10/2021 02:00:00 AM,true,true,true,false,40.752664,-73.98147,5,4,82,1012750069,Murray Hill-Kips Bay
4893,1014387,1,PENN PLAZA,MANHATTAN,105,M00105672-I1-SH,M1759889,AHV Permit Issued,Initial,Public Safety,04/04/2019 06:00:00 PM,04/05/2019 06:00:00 AM,true,false,false,false,40.751098,-73.992926,5,3,101,1007830070,Midtown-Midtown South
2041,1001026,120,BROADWAY,MANHATTAN,101,"123840022-01-EW-OT, M00285102-I1-MS, M00285056-I1-ST",M3748493,AHV Permit Rejected,Initial,Public Safety,09/25/2020 06:00:00 PM,09/26/2020 01:00:00 AM,true,false,false,false,40.708546,-74.011041,1,1,7,1000477501,Battery Park City-Lower Manhattan
22384,1036082,767,5 AVENUE,MANHATTAN,105,M00483859-I1-GC,M8591167,AHV Permit Rejected,Initial,Public Safety,04/30/2021 06:00:00 PM,05/01/2021 02:00:00 AM,false,true,true,false,40.76402,-73.973189,5,4,11202,1012940001,Midtown-Midtown South
32924,1088582,510,MADISON AVENUE,MANHATTAN,105,M00535938-I1-GC,M7069016,AHV Permit Issued,Initial,Public Safety,07/09/2021 06:00:00 PM,07/10/2021 02:00:00 AM,true,true,true,false,40.759651,-73.974299,5,4,102,1012880056,Midtown-Midtown South
51148,1067567,2,HORATIO STREET,MANHATTAN,102,M00502167-I1-GC,M6882799,AHV Permit Rejected,Initial,Construction activities with minimal noise impact,10/16/2021 09:00:00 AM,10/16/2021 04:00:00 PM,true,false,false,false,40.738753,-74.002504,2,3,77,1006167501,West Village
37440,1080644,620,AVENUE OF THE AMERICAS,MANHATTAN,105,"M00538267-I1-MS, M00538263-I1-GC",M8768704,AHV Permit Rejected,Initial,Public Safety,07/23/2021 06:00:00 PM,07/24/2021 02:00:00 AM,true,false,false,false,40.740081,-73.994843,5,3,54,1008207505,Hudson Yards-Chelsea-Flatiron-Union Square
57493,5159763,365,BAY STREET,STATEN ISLAND,501,S00481247-I1-GC,S9485823,AHV Permit Issued,Renewal,Public Safety,11/03/2021 06:00:00 AM,11/03/2021 07:00:00 AM,true,true,false,false,40.633326,-74.075253,1,49,21,5004880071,Stapleton-Rosebank
54847,1071414,1166,AVENUE OF THE AMERICAS,MANHATTAN,105,"M00511578-I1-GC, M00511607-I1-ST, M00512010-I1-MS",M9972260,AHV Permit Issued,Initial,Public Safety,10/12/2021 06:00:00 PM,10/13/2021 03:00:00 AM,true,true,false,false,40.757004,-73.982526,5,4,96,1012617501,Midtown-Midtown South
53749,1024686,3,TIMES SQUARE,MANHATTAN,105,M00546231-I1-GC,M6048780,AHV Permit Issued,Initial,Construction activities with minimal noise impact,10/06/2021 06:00:00 PM,10/06/2021 11:59:00 PM,true,true,true,false,40.756376,-73.986713,5,3,119,1010140033,Midtown-Midtown South
20324,3002108,16,COURT STREET,BROOKLYN,302,B00483868-I1-GC,B1472993,AHV Permit Issued,Initial,Construction activities with minimal noise impact,05/05/2021 06:00:00 PM,05/06/2021 02:00:00 AM,true,true,true,false,40.693445,-73.990577,2,33,9,3002500044,Brooklyn Heights-Cobble Hill
58209,1080644,620,6 AVENUE,MANHATTAN,105,"M00596058-I1-GC, M00596215-I1-MS",M5399383,AHV Permit Issued,Initial,Public Safety,10/30/2021 09:00:00 AM,10/30/2021 05:00:00 PM,true,false,false,false,40.740081,-73.994843,5,3,54,1008207505,Hudson Yards-Chelsea-Flatiron-Union Square
20315,1024877,1740,BROADWAY,MANHATTAN,105,M00449585-I1-GC,M1918086,AHV Permit Issued,Renewal,Public Safety,03/11/2021 06:00:00 PM,03/12/2021 03:00:00 AM,true,true,true,false,40.765098,-73.982095,5,4,137,1010270020,Midtown-Midtown South
32430,1034510,1290,AVENUE OF THE AMERICAS,MANHATTAN,105,M00512340-I1-GC,M2784994,AHV Permit Issued,Renewal,City Construction Project,08/07/2021 08:00:00 AM,08/07/2021 08:00:00 PM,true,true,false,false,40.760857,-73.979717,5,4,104,1012670001,Midtown-Midtown South
29153,1083346,55,WATER STREET,MANHATTAN,101,"M00491815-I1-GC, M00491851-I1-ST",M1838561,AHV Permit Rejected,Initial,Construction activities with minimal noise impact,05/25/2021 12:00:00 AM,05/25/2021 06:59:00 AM,false,true,false,false,40.703608,-74.009691,1,1,9,1000327501,Battery Park City-Lower Manhattan
50993,3257037,38,FLEET WALK,BROOKLYN,302,"B00325449-I1-SH, B00330235-I1-FN, B00352341-I1-SF",B3113185,AHV Permit Issued,Initial,Public Safety,10/04/2021 06:00:00 PM,10/04/2021 11:59:00 PM,true,false,false,false,40.69469,-73.981735,2,35,15,3020500001,DUMBO-Vinegar Hill-Downtown Brooklyn-Boerum Hill
21652,1063947,185,WADSWORTH AVENUE,MANHATTAN,,,M9985950,AHV Permit Issued,Initial,Public Safety,05/16/2021 08:00:00 AM,05/16/2021 04:00:00 PM,true,false,false,true,40.850626,-73.934377,12,10,271,1021650026,Washington Heights North
41332,1076176,125,WEST   55 STREET,MANHATTAN,105,M00546730-I1-GC,M8482173,AHV Permit Issued,Initial,Public Safety,08/04/2021 06:00:00 PM,08/05/2021 01:00:00 AM,true,true,true,false,40.763514,-73.979276,5,4,137,1010080019,Midtown-Midtown South
57098,3257035,60,FLEET WALK,BROOKLYN,302,"B00325179-I1-SH, B00325307-I1-FN, B00352338-I1-SF",B5069556,AHV Permit Issued,Initial,Public Safety,10/23/2021 08:00:00 AM,10/23/2021 06:00:00 PM,true,false,false,false,40.694196,-73.981861,2,35,15,3020500001,DUMBO-Vinegar Hill-Downtown Brooklyn-Boerum Hill
54646,1036151,125,PARK AVENUE,MANHATTAN,105,"M00578958-I1-GC, M00578975-I1-MS",M3208412,AHV Permit Issued,Initial,Public Safety,10/13/2021 06:00:00 PM,10/14/2021 02:00:00 AM,true,true,true,false,40.751681,-73.977677,5,4,80,1012960001,Murray Hill-Kips Bay
12160,1090825,10,VANDERBILT AVENUE,MANHATTAN,105,M00246737-I1-ST,M9246171,Approved,Initial,Construction activities with minimal noise impact,07/17/2020 06:00:00 PM,07/18/2020 02:00:00 AM,false,true,false,false,40.752732,-73.978138,5,4,94,1012770027,Midtown-Midtown South
56934,3257037,38,FLEET WALK,BROOKLYN,302,"B00325449-I1-SH, B00330235-I1-FN, B00352341-I1-SF",B3195540,AHV Permit Issued,Initial,Public Safety,10/23/2021 08:00:00 AM,10/23/2021 06:00:00 PM,true,false,false,false,40.69469,-73.981735,2,35,15,3020500001,DUMBO-Vinegar Hill-Downtown Brooklyn-Boerum Hill
48630,1034510,1290,AVENUE OF THE AMERICAS,MANHATTAN,105,M00512393-I1-EW-SP,M6839016,AHV Permit Issued,Initial,Undue Hardship,09/04/2021 06:00:00 AM,09/04/2021 05:00:00 PM,false,true,false,false,40.760857,-73.979717,5,4,104,1012670001,Midtown-Midtown South
33274,1082153,605,3 AVENUE,MANHATTAN,106,M00538040-I1-GC,M3249905,AHV Permit Issued,Initial,Public Safety,07/22/2021 10:00:00 PM,07/23/2021 02:00:00 AM,true,true,false,false,40.749076,-73.975682,6,4,88,1009200012,Turtle Bay-East Midtown
2459,4615628,28-07,JACKSON AVENUE,QUEENS,402,Q00323907-I1-PL,Q9535108,AHV Permit Issued,Initial,Construction activities with minimal noise impact,08/29/2020 07:00:00 AM,08/29/2020 03:30:00 PM,false,true,false,false,40.748434,-73.938768,2,26,19,4004200001,Hunters Point-Sunnyside-West Maspeth
9843,2092113,500,EAST 171 STREET,BRONX,203,X00217267-I1-SH,X2527597,AHV Permit Issued,Initial,Emergency Work,11/27/2019 06:00:00 PM,11/27/2019 10:00:00 PM,true,false,false,false,40.837489,-73.902916,3,16,14702,2029110001,Claremont-Bathgate
13857,3332221,465,COLUMBIA STREET,BROOKLYN,306,B00063884-I1-FN,B6504641,AHV Permit Issued,Renewal,Public Safety,07/20/2019 08:00:00 AM,07/20/2019 04:30:00 PM,true,false,false,false,40.676375,-74.006861,6,38,85,3005380001,Carroll Gardens-Columbia Street-Red Hook
59701,1813346,1,MANHATTAN PLAZA,MANHATTAN,118,M00620622-I1-GC,M6570610,AHV Permit Issued,Initial,Construction activities with minimal noise impact,11/25/2021 06:00:00 PM,11/25/2021 11:59:00 PM,false,false,false,false,,,,,,,
66713,1015732,260,FIFTH AVENUE,MANHATTAN,105,M00567041-I1-GC,M2509042,AHV Permit Rejected,Initial,Public Safety,12/17/2021 06:00:00 PM,12/17/2021 09:00:00 PM,true,false,true,false,40.745037,-73.987048,5,4,76,1008300042,Midtown-Midtown South
47694,1035380,545,FIFTH AVENUE,MANHATTAN,105,M00580138-I1-GC,M3505098,AHV Permit Issued,Renewal,Public Safety,10/02/2021 08:00:00 AM,10/02/2021 04:00:00 PM,true,true,false,false,40.755164,-73.979188,5,4,94,1012790069,Midtown-Midtown South
3552,1035792,727,5 AVENUE,MANHATTAN,105,M00354278-I1-SF,M4575731,AHV Permit Issued,Initial,Public Safety,09/25/2020 10:00:00 PM,09/26/2020 06:00:00 AM,true,false,false,false,40.762569,-73.974247,5,4,11202,1012920069,Midtown-Midtown South
14304,3189511,2950,WEST 35 STREET,BROOKLYN,313,B00014875-I1-FN,B7643510,AHV Permit Issued,Initial,City Construction Project,03/17/2018 08:00:00 AM,03/17/2018 05:00:00 PM,true,false,false,false,40.573838,-74.000493,13,47,342,3070460022,Seagate-Coney Island
3754,1090825,10,VANDERBILT AVENUE,MANHATTAN,105,M00333692-I1-MS,M5210096,AHV Permit Issued,Initial,Public Safety,11/18/2020 06:00:00 PM,11/19/2020 12:00:00 AM,false,true,true,false,40.752732,-73.978138,5,4,94,1012770027,Midtown-Midtown South
44180,1080644,620,AVENUE OF THE AMERICAS,MANHATTAN,105,"M00538263-I1-GC, M00538267-I1-MS",M8894348,AHV Permit Issued,Renewal,Construction activities with minimal noise impact,09/16/2021 06:00:00 PM,09/17/2021 02:00:00 AM,true,true,false,false,40.740081,-73.994843,5,3,54,1008207505,Hudson Yards-Chelsea-Flatiron-Union Square
64409,2092075,1451,WASHINGTON AVENUE,BRONX,203,"X00450946-I1-SF, X00217327-I1-SH, X00217323-I1-FN",X4805529,AHV Permit Issued,Initial,Public Safety,11/29/2021 06:00:00 PM,11/29/2021 11:59:00 PM,true,false,false,false,40.836458,-73.904016,3,16,14702,2029020036,Claremont-Bathgate
38932,1010379,375,HUDSON STREET,MANHATTAN,102,M00542319-I1-GC,M8031608,AHV Permit Issued,Initial,Public Safety,10/18/2021 06:00:00 PM,10/19/2021 07:00:00 AM,true,true,true,false,40.728435,-74.007151,2,3,37,1005990064,SoHo-TriBeCa-Civic Center-Little Italy
50013,1035403,390,MADISON AVENUE,MANHATTAN,105,M00582328-I1-GC,M3255248,AHV Permit Issued,Initial,Public Safety,09/16/2021 06:00:00 PM,09/17/2021 06:00:00 AM,true,true,false,false,40.755738,-73.977152,5,4,94,1012820017,Midtown-Midtown South
56904,1016047,452,FIFTH AVENUE,MANHATTAN,105,M00573553-I1-GC,M2689247,AHV Permit Issued,Renewal,Public Safety,10/29/2021 06:00:00 PM,10/30/2021 02:00:00 AM,true,true,true,false,40.752335,-73.982416,5,4,84,1008410049,Midtown-Midtown South
35660,1036505,425,PARK AVENUE,MANHATTAN,105,"140906330-01-EW-OT, M00201646-I1-MS, M00205508-I1-ST",M3985153,AHV Permit Issued,Initial,Public Safety,07/21/2021 06:00:00 PM,07/21/2021 11:59:00 PM,true,false,true,false,40.760512,-73.971541,5,4,100,1013100001,Turtle Bay-East Midtown
4409,1026318,10,COLUMBUS CIRCLE,MANHATTAN,104,"123790282-01-EW-OT, 123790282-02-EW-OT, M00231549-I1-ST, M00224953-I1-MS, M00210238-I1-MS",M7408183,AHV Permit Issued,Initial,Construction activities with minimal noise impact,12/11/2020 06:00:00 PM,12/11/2020 10:00:00 PM,true,true,false,false,40.768244,-73.982339,4,3,145,1010497501,Lincoln Square
6338,1036156,405,LEXINGTON AVENUE,MANHATTAN,106,M00243127-I1-SH,M5216149,AHV Permit Issued,Initial,Public Safety,11/08/2019 06:00:00 PM,11/09/2019 07:00:00 AM,true,false,false,false,40.751823,-73.97576,6,4,92,1012970023,Turtle Bay-East Midtown
2940,3097755,2300,LINDEN BOULEVARD,BROOKLYN,305,B00395075-I1-MS,B8026086,AHV Permit Issued,Initial,Public Safety,10/30/2020 09:00:00 PM,10/31/2020 07:00:00 AM,false,true,false,false,40.663888,-73.878265,5,42,1116,3043620001,East New York
4347,1090825,10,VANDERBILT AVENUE,MANHATTAN,105,M00333692-I1-MS,M9448602,AHV Permit Issued,Renewal,Public Safety,12/07/2020 06:00:00 PM,12/08/2020 12:00:00 AM,false,true,true,false,40.752732,-73.978138,5,4,94,1012770027,Midtown-Midtown South
10886,1012843,460,WEST 34 STREET,MANHATTAN,104,M00220763-I1-FN,M5584758,AHV Permit Issued,Initial,Public Safety,11/21/2019 10:00:00 PM,11/22/2019 06:00:00 AM,true,false,false,false,40.754329,-73.998578,4,3,103,1007310001,Hudson Yards-Chelsea-Flatiron-Union Square
55097,1036465,375,PARK AVENUE,MANHATTAN,105,M00526077-I1-GC,M4795704,AHV Permit Issued,Renewal,Construction activities with minimal noise impact,11/10/2021 06:00:00 PM,11/11/2021 06:00:00 AM,true,true,true,false,40.758786,-73.972801,5,4,100,1013070001,Turtle Bay-East Midtown
25087,1000880,80,PINE STREET,MANHATTAN,101,M00484836-I1-GC,M8631633,AHV Permit Issued,Renewal,Public Safety,07/07/2021 06:00:00 PM,07/07/2021 10:00:00 PM,true,false,false,false,40.705892,-74.007181,1,1,7,1000390012,Battery Park City-Lower Manhattan
21966,1035737,685,5 AVENUE,MANHATTAN,,,M1565373,AHV Permit Issued,Initial,Construction activities with minimal noise impact,03/24/2021 12:01:00 AM,03/24/2021 06:00:00 AM,true,false,false,true,40.76082,-73.975093,5,4,102,1012897501,Midtown-Midtown South
16180,1022709,1271,AVENUE OF THE AMERICAS,MANHATTAN,105,M00285983-I1-ST,M5029296,AHV Permit Rejected,Initial,Public Safety,03/27/2020 06:00:00 PM,03/28/2020 02:00:00 AM,true,true,true,false,40.760289,-73.980157,5,4,131,1010030029,Midtown-Midtown South
28093,1085682,151,WEST   42 STREET,MANHATTAN,105,"M00482399-I1-GC, M00482406-I1-ST",M3929678,AHV Permit Issued,Initial,Public Safety,06/01/2021 06:00:00 PM,06/02/2021 06:00:00 AM,true,true,false,false,40.755478,-73.985598,5,4,119,1009950005,Midtown-Midtown South
40156,1014948,155,WEST   23 STREET,MANHATTAN,104,"M00532499-I1-GC, M00527097-I1-ST, M00492079-I1-GC, M00487383-I1-GC, M00486480-I1-MS",M1061982,AHV Permit Issued,Initial,Public Safety,08/03/2021 06:00:00 PM,08/04/2021 02:00:00 AM,true,true,false,false,40.743556,-73.994323,4,3,91,1007990012,Hudson Yards-Chelsea-Flatiron-Union Square
9360,1014981,119,WEST 24 STREET,MANHATTAN,104,M00269210-I1-MS,M5669213,AHV Permit Issued,Initial,Public Safety,01/04/2020 07:00:00 AM,01/04/2020 05:00:00 PM,true,true,true,false,40.74391,-73.993104,4,3,91,1008000025,Hudson Yards-Chelsea-Flatiron-Union Square
65536,1015175,11,PENNSYLVANIA PLAZA,MANHATTAN,105,M00559179-I1-GC,M5844730,AHV Permit Issued,Renewal,Construction activities with minimal noise impact,11/23/2021 06:00:00 PM,11/24/2021 12:00:00 AM,true,true,true,false,40.749402,-73.991775,5,3,101,1008070001,Midtown-Midtown South
62815,1071414,1166,AVENUE OF THE AMERICAS,MANHATTAN,105,"M00511578-I1-GC, M00511607-I1-ST, M00512010-I1-MS",M6605061,AHV Permit Issued,Initial,Public Safety,11/29/2021 06:00:00 PM,11/30/2021 03:00:00 AM,true,true,false,false,40.757004,-73.982526,5,4,96,1012617501,Midtown-Midtown South
